{
    "links": {
        "self": "http://www.neowsapp.com/rest/v1/neo/3767927?api_key=iIulBulltgU6a56xZRHN4H3l9WmuAYTsLGpBGhQ2"
    },
    "id": "3767927",
    "neo_reference_id": "3767927",
    "name": "(2017 BL93)",
    "designation": "2017 BL93",
    "nasa_jpl_url": "http://ssd.jpl.nasa.gov/sbdb.cgi?sstr=3767927",
    "absolute_magnitude_h": 22.7,
    "estimated_diameter": {
        "kilometers": {
            "estimated_diameter_min": 0.0766575574,
            "estimated_diameter_max": 0.1714115092
        },
        "meters": {
            "estimated_diameter_min": 76.6575573531,
            "estimated_diameter_max": 171.4115092306
        },
        "miles": {
            "estimated_diameter_min": 0.0476327831,
            "estimated_diameter_max": 0.1065101409
        },
        "feet": {
            "estimated_diameter_min": 251.5011804664,
            "estimated_diameter_max": 562.3737359442
        }
    },
    "is_potentially_hazardous_asteroid": false,
    "close_approach_data": [
        {
            "close_approach_date": "1922-07-13",
            "close_approach_date_full": "1922-Jul-13 05:31",
            "epoch_date_close_approach": -1498069740000,
            "relative_velocity": {
                "kilometers_per_second": "25.4435793504",
                "kilometers_per_hour": "91596.885661354",
                "miles_per_hour": "56914.7426488563"
            },
            "miss_distance": {
                "astronomical": "0.323195235",
                "lunar": "125.722946415",
                "kilometers": "48349318.75014945",
                "miles": "30042873.56478441"
            },
            "orbiting_body": "Earth"
        },
        {
            "close_approach_date": "2016-11-30",
            "close_approach_date_full": "2016-Nov-30 22:04",
            "epoch_date_close_approach": 1480543440000,
            "relative_velocity": {
                "kilometers_per_second": "12.1165550084",
                "kilometers_per_hour": "43619.5980302407",
                "miles_per_hour": "27103.5218982904"
            },
            "miss_distance": {
                "astronomical": "0.1561712514",
                "lunar": "60.7506167946",
                "kilometers": "23362886.564674518",
                "miles": "14517024.5479156284"
            },
            "orbiting_body": "Earth"
        }
    ],
    "orbital_data": {
        "orbit_id": "2",
        "orbit_determination_date": "2017-04-06 08:20:28",
        "first_observation_date": "2017-01-26",
        "last_observation_date": "2017-02-02",
        "data_arc_in_days": 7,
        "observations_used": 13,
        "orbit_uncertainty": "9",
        "minimum_orbit_intersection": ".0199546",
        "jupiter_tisserand_invariant": "3.606",
        "epoch_osculation": "2457781.5",
        "eccentricity": ".6195783682212423",
        "semi_major_axis": "1.970909391809362",
        "inclination": "2.141626022417432",
        "ascending_node_longitude": "162.0000297762309",
        "orbital_period": "1010.64449653397",
        "perihelion_distance": ".7497765669201963",
        "perihelion_argument": "219.8685387122805",
        "aphelion_distance": "3.192042216698528",
        "perihelion_time": "2457691.658574617317",
        "mean_anomaly": "32.0022651374313",
        "mean_motion": ".3562083415430735",
        "equinox": "J2000",
        "orbit_class": {
            "orbit_class_type": "APO",
            "orbit_class_description": "Near-Earth asteroid orbits which cross the Earth’s orbit similar to that of 1862 Apollo",
            "orbit_class_range": "a (semi-major axis) > 1.0 AU; q (perihelion) < 1.017 AU"
        }
    },
    "is_sentry_object": false
}